NORAD_CAT_ID,OBJECT_NAME,OBJECT_TYPE,EPOCH,MEAN_MOTION,ECCENTRICITY,INCLINATION,RA_OF_ASC_NODE,ARG_OF_PERICENTER,MEAN_ANOMALY,BSTAR,MEAN_MOTION_DOT,MEAN_MOTION_DDOT,TLE_LINE0,TLE_LINE1,TLE_LINE2,SEMIMAJOR_AXIS,PERIOD,APOGEE,PERIGEE,DECAYED
53169.0,STARLINK-4117,PAYLOAD,2024-05-07 14:30:16,15.08836533,0.0001113,53.2167,282.0028,108.3649,251.7464,3.1662e-05,2.16e-06,0.0,0 STARLINK-4117,1 53169U 22083AP  24128.60435296  .00000216  00000-0  31662-4 0  9992,2 53169  53.2167 282.0028 0001113 108.3649 251.7464 15.08836533100247,6917.891,95.438,540.526,538.986,0.0
53169.0,STARLINK-4117,PAYLOAD,2024-05-07 17:41:02,15.0884075,9.88e-05,53.2157,281.4059,93.7588,266.3517,0.00022922,3.362e-05,0.0,0 STARLINK-4117,1 53169U 22083AP  24128.73683323  .00003362  00000-0  22922-3 0  9995,2 53169  53.2157 281.4059 0000988  93.7588 266.3517 15.08840750100901,6917.878,95.438,540.427,539.06,0.0
53169.0,STARLINK-4117,PAYLOAD,2024-05-08 14:21:03,15.08837853,0.0001213,53.2164,277.54,86.4249,273.6882,5.206e-05,5.41e-06,0.0,0 STARLINK-4117,1 53169U 22083AP  24129.59795613  .00000541  00000-0  52060-4 0  9999,2 53169  53.2164 277.5400 0001213  86.4249 273.6882 15.08837853100399,6917.887,95.438,540.591,538.913,0.0
53169.0,STARLINK-4117,PAYLOAD,2024-05-08 17:31:49,15.08843684,0.0001214,53.2158,276.9453,86.2007,273.9124,6.0734e-05,6.79e-06,0.0,0 STARLINK-4117,1 53169U 22083AP  24129.73043265  .00000679  00000-0  60734-4 0  9993,2 53169  53.2158 276.9453 0001214  86.2007 273.9124 15.08843684100418,6917.869,95.437,540.574,538.894,0.0
53169.0,STARLINK-4117,PAYLOAD,2024-05-09 09:25:41,15.08841231,0.0001108,53.2158,273.9711,82.9683,277.1435,0.00012908,1.767e-05,0.0,0 STARLINK-4117,1 53169U 22083AP  24130.39283584  .00001767  00000-0  12908-3 0  9995,2 53169  53.2158 273.9711 0001108  82.9683 277.1435 15.08841231101156,6917.877,95.437,540.508,538.975,0.0
53169.0,STARLINK-4117,PAYLOAD,2024-05-09 14:11:50,15.08843191,0.0001135,53.2159,273.0796,80.1541,279.9579,0.0001813,2.599e-05,0.0,0 STARLINK-4117,1 53169U 22083AP  24130.59155507  .00002599  00000-0  18130-3 0  9997,2 53169  53.2159 273.0796 0001135  80.1541 279.9579 15.08843191100542,6917.871,95.437,540.521,538.95,0.0
53169.0,STARLINK-4117,PAYLOAD,2024-05-09 15:47:13,15.08847722,0.0001152,53.2163,272.7815,90.5647,269.5477,0.0002155,3.144e-05,0.0,0 STARLINK-4117,1 53169U 22083AP  24130.65779276  .00003144  00000-0  21550-3 0  9996,2 53169  53.2163 272.7815 0001152  90.5647 269.5477 15.08847722100553,6917.857,95.437,540.519,538.925,0.0
53169.0,STARLINK-4117,PAYLOAD,2024-05-10 12:27:14,15.08844257,0.0001134,53.2151,268.916,87.0388,273.0734,0.000197,2.849e-05,0.0,0 STARLINK-4117,1 53169U 22083AP  24131.51891545  .00002849  00000-0  19700-3 0  9991,2 53169  53.2151 268.9160 0001134  87.0388 273.0734 15.08844257101325,6917.867,95.437,540.517,538.948,0.0
53169.0,STARLINK-4117,PAYLOAD,2024-05-10 14:02:37,15.08847235,0.0001403,53.2163,268.619,80.3231,279.792,0.00024007,3.536e-05,0.0,0 STARLINK-4117,1 53169U 22083AP  24131.58515468  .00003536  00000-0  24007-3 0  9995,2 53169  53.2163 268.6190 0001403  80.3231 279.7920 15.08847235100698,6917.858,95.437,540.694,538.753,0.0
53169.0,STARLINK-4117,PAYLOAD,2024-05-10 18:48:46,15.08855578,0.0001259,53.217,267.7236,97.4006,262.7129,0.0002432,3.586e-05,0.0,0 STARLINK-4117,1 53169U 22083AP  24131.78386843  .00003586  00000-0  24320-3 0  9993,2 53169  53.2170 267.7236 0001259  97.4006 262.7129 15.08855578101362,6917.833,95.437,540.569,538.827,0.0
53169.0,STARLINK-4117,PAYLOAD,2024-05-11 12:17:58,15.08930589,0.000233,53.2152,264.4549,122.9888,237.1328,0.0021621,0.00034376,0.0,0 STARLINK-4117,1 53169U 22083AP  24132.51248117  .00034376  00000-0  21621-2 0  9997,2 53169  53.2152 264.4549 0002330 122.9888 237.1328 15.08930589101471,6917.604,95.432,541.08,537.857,0.0
53169.0,STARLINK-4117,PAYLOAD,2024-05-11 18:39:30,15.08876031,0.0001262,53.2159,263.2656,64.6242,295.4881,0.00013363,1.841e-05,0.0,0 STARLINK-4117,1 53169U 22083AP  24132.77744097  .00001841  00000-0  13363-3 0  9999,2 53169  53.2159 263.2656 0001262  64.6242 295.4881 15.08876031101510,6917.77,95.435,540.508,538.762,0.0
53169.0,STARLINK-4117,PAYLOAD,2024-05-12 12:08:49,15.08790047,0.0002304,53.2178,259.9931,119.4809,240.6413,-0.0010638,-0.00017156,0.0,0 STARLINK-4117,1 53169U 22083AP  24133.50612502 -.00017156  00000-0 -10638-2 0  9995,2 53169  53.2178 259.9931 0002304 119.4809 240.6413 15.08790047101622,6918.033,95.441,541.492,538.304,0.0
53169.0,STARLINK-4117,PAYLOAD,2024-05-12 15:19:36,15.08777251,0.0001062,53.2172,259.3993,77.4593,282.6518,-0.00015045,-2.677e-05,0.0,0 STARLINK-4117,1 53169U 22083AP  24133.63861507 -.00002677  00000-0 -15045-3 0  9990,2 53169  53.2172 259.3993 0001062  77.4593 282.6518 15.08777251101007,6918.072,95.442,540.672,539.202,0.0
53169.0,STARLINK-4117,PAYLOAD,2024-05-13 00:51:56,15.08788587,0.0001257,53.2196,257.6153,82.1958,277.9177,0.0017791,0.000281,0.0,0 STARLINK-4117,1 53169U 22083AP  24134.03606693  .00028100  00000-0  17791-2 0  9994,2 53169  53.2196 257.6153 0001257  82.1958 277.9177 15.08788587101705,6918.038,95.441,540.772,539.033,0.0
53169.0,STARLINK-4117,PAYLOAD,2024-05-13 11:59:37,15.08854882,0.0001366,53.2149,255.5313,44.8725,315.2378,0.0018778,0.00029736,0.0,0 STARLINK-4117,1 53169U 22083AP  24134.49974489  .00029736  00000-0  18778-2 0  9997,2 53169  53.2149 255.5313 0001366  44.8725 315.2378 15.08854882101774,6917.835,95.437,540.645,538.755,0.0
53169.0,STARLINK-4117,PAYLOAD,2024-05-13 15:10:23,15.08881074,0.0001161,53.2161,254.9384,72.8551,287.2568,0.0028042,0.00044674,0.0,0 STARLINK-4117,1 53169U 22083AP  24134.63222031  .00044674  00000-0  28042-2 0  9995,2 53169  53.2161 254.9384 0001161  72.8551 287.2568 15.08881074101794,6917.755,95.435,540.423,538.817,0.0
53169.0,STARLINK-4117,PAYLOAD,2024-05-14 11:50:23,15.08880269,0.0001221,53.2151,251.0735,49.2403,310.8695,0.0014813,0.00023392,0.0,0 STARLINK-4117,1 53169U 22083AP  24135.49332855  .00023392  00000-0  14813-2 0  9991,2 53169  53.2151 251.0735 0001221  49.2403 310.8695 15.08880269101926,6917.757,95.435,540.467,538.778,0.0
53169.0,STARLINK-4117,PAYLOAD,2024-05-15 00:33:28,15.08870128,0.0001281,53.2166,248.6926,79.6235,280.4901,0.0044699,0.00071633,0.0,0 STARLINK-4117,1 53169U 22083AP  24136.02324120  .00071633  00000-0  44699-2 0  9993,2 53169  53.2166 248.6926 0001281  79.6235 280.4901 15.08870128102007,6917.788,95.436,540.539,538.767,0.0
53169.0,STARLINK-4117,PAYLOAD,2024-05-15 11:41:09,15.08857579,0.0001617,53.2153,246.6147,90.4794,269.6384,0.0017787,0.00028147,0.0,0 STARLINK-4117,1 53169U 22083AP  24136.48692077  .00028147  00000-0  17787-2 0  9992,2 53169  53.2153 246.6147 0001617  90.4794 269.6384 15.08857579102076,6917.827,95.436,540.81,538.573,0.0
53169.0,STARLINK-4117,PAYLOAD,2024-05-15 13:16:33,15.08857611,0.0001545,53.2162,246.3185,91.7893,268.3276,0.001755,0.00027767,0.0,0 STARLINK-4117,1 53169U 22083AP  24136.55316012  .00027767  00000-0  17550-2 0  9997,2 53169  53.2162 246.3185 0001545  91.7893 268.3276 15.08857611101442,6917.827,95.436,540.76,538.623,0.0
53169.0,STARLINK-4117,PAYLOAD,2024-05-15 14:51:56,15.08863252,0.0001481,53.216,246.0212,90.1868,269.9294,0.0018561,0.00029394,0.0,0 STARLINK-4117,1 53169U 22083AP  24136.61939875  .00029394  00000-0  18561-2 0  9993,2 53169  53.2160 246.0212 0001481  90.1868 269.9294 15.08863252101458,6917.809,95.436,540.699,538.65,0.0
53169.0,STARLINK-4117,PAYLOAD,2024-05-16 13:07:19,15.08863474,0.0001406,53.2157,241.8558,91.0845,269.0308,0.00094995,0.00014872,0.0,0 STARLINK-4117,1 53169U 22083AP  24137.54675403  .00014872  00000-0  94995-3 0  9991,2 53169  53.2157 241.8558 0001406  91.0845 269.0308 15.08863474102232,6917.809,95.436,540.646,538.701,0.0
53169.0,STARLINK-4117,PAYLOAD,2024-05-17 00:15:01,15.08856705,0.0001365,53.2138,239.7751,85.4225,274.6923,0.00050884,7.823e-05,0.0,0 STARLINK-4117,1 53169U 22083AP  24138.01043116  .00007823  00000-0  50884-3 0  9991,2 53169  53.2138 239.7751 0001365  85.4225 274.6923 15.08856705102307,6917.829,95.436,540.639,538.75,0.0
53169.0,STARLINK-4117,PAYLOAD,2024-05-17 12:58:06,15.08838812,0.0001308,53.2143,237.3952,85.6068,274.5073,-8.2873e-05,-1.607e-05,0.0,0 STARLINK-4117,1 53169U 22083AP  24138.54035441 -.00001607  00000-0 -82873-4 0  9991,2 53169  53.2143 237.3952 0001308  85.6068 274.5073 15.08838812102386,6917.884,95.438,540.654,538.844,0.0
53169.0,STARLINK-4117,PAYLOAD,2024-05-18 12:48:53,15.08854154,0.0001369,53.2158,232.9344,98.281,261.8337,0.00031883,4.792e-05,0.0,0 STARLINK-4117,1 53169U 22083AP  24139.53395131  .00004792  00000-0  31883-3 0  9996,2 53169  53.2158 232.9344 0001369  98.2810 261.8337 15.08854154102536,6917.837,95.437,540.649,538.755,0.0
53169.0,STARLINK-4117,PAYLOAD,2024-05-18 15:59:39,15.08858551,0.0001473,53.2156,232.3387,101.5134,258.6024,0.00039844,6.062e-05,0.0,0 STARLINK-4117,1 53169U 22083AP  24139.66642801  .00006062  00000-0  39844-3 0  9996,2 53169  53.2156 232.3387 0001473 101.5134 258.6024 15.08858551101911,6917.824,95.436,540.708,538.67,0.0
53169.0,STARLINK-4117,PAYLOAD,2024-05-19 12:39:41,15.0882824,0.0001686,53.2174,228.4727,103.3103,256.8077,5.795e-06,-1.96e-06,0.0,0 STARLINK-4117,1 53169U 22083AP  24140.52756727 -.00000196  00000-0  57950-5 0  9999,2 53169  53.2174 228.4727 0001686 103.3103 256.8077 15.08828240102042,6917.916,95.438,540.948,538.615,0.0
53169.0,STARLINK-4117,PAYLOAD,2024-05-20 10:55:05,15.08851465,0.0001657,53.2166,224.3097,108.0762,252.041,0.00045098,6.899e-05,0.0,0 STARLINK-4117,1 53169U 22083AP  24141.45492287  .00006899  00000-0  45098-3 0  9993,2 53169  53.2166 224.3097 0001657 108.0762 252.0410 15.08851465102829,6917.845,95.437,540.857,538.564,0.0
53169.0,STARLINK-4117,PAYLOAD,2024-05-21 09:10:29,15.08837906,0.0001512,53.2161,220.1494,111.9929,248.1224,8.0411e-05,9.92e-06,0.0,0 STARLINK-4117,1 53169U 22083AP  24142.38228932  .00000992  00000-0  80411-4 0  9997,2 53169  53.2161 220.1494 0001512 111.9929 248.1224 15.08837906102965,6917.887,95.438,540.798,538.706,0.0
